NORAD_CAT_ID,OBJECT_NAME,OBJECT_TYPE,EPOCH,MEAN_MOTION,ECCENTRICITY,INCLINATION,RA_OF_ASC_NODE,ARG_OF_PERICENTER,MEAN_ANOMALY,BSTAR,MEAN_MOTION_DOT,MEAN_MOTION_DDOT,TLE_LINE0,TLE_LINE1,TLE_LINE2,SEMIMAJOR_AXIS,PERIOD,APOGEE,PERIGEE,DECAYED
56471.0,STARLINK-5521,PAYLOAD,2024-04-10 05:24:32,14.98331525,0.0002922,69.9987,85.6325,270.106,89.9764,7.6154e-06,-2e-08,0.0,0 STARLINK-5521,1 56471U 23064Z   24101.22537575 -.00000002  00000-0  76154-5 0  9993,2 56471  69.9987  85.6325 0002922 270.1060  89.9764 14.98331525 51474,6950.188,96.107,574.084,570.022,0.0
56471.0,STARLINK-5521,PAYLOAD,2024-04-10 08:36:48,14.98328972,0.0003007,69.9986,85.2955,271.7068,88.3746,-2.3758e-06,-1.21e-06,0.0,0 STARLINK-5521,1 56471U 23064Z   24101.35889753 -.00000121  00000-0 -23758-5 0  9990,2 56471  69.9986  85.2955 0003007 271.7068  88.3746 14.98328972 51136,6950.196,96.107,574.151,569.971,0.0
56471.0,STARLINK-5521,PAYLOAD,2024-04-10 16:37:29,14.98332905,0.0003062,69.9986,84.4543,268.8757,91.2051,-0.00013496,-1.703e-05,0.0,0 STARLINK-5521,1 56471U 23064Z   24101.69269783 -.00001703  00000-0 -13496-3 0  9995,2 56471  69.9986  84.4543 0003062 268.8757  91.2051 14.98332905 51181,6950.184,96.107,574.177,569.921,0.0
56471.0,STARLINK-5521,PAYLOAD,2024-04-11 05:26:33,14.98329451,0.0002987,69.9986,83.1073,270.7238,89.3578,-3.3178e-06,-1.33e-06,0.0,0 STARLINK-5521,1 56471U 23064Z   24102.22677735 -.00000133  00000-0 -33178-5 0  9992,2 56471  69.9986  83.1073 0002987 270.7238  89.3578 14.98329451 51629,6950.195,96.107,574.136,569.984,0.0
56471.0,STARLINK-5521,PAYLOAD,2024-04-11 08:38:49,14.9833017,0.0002958,69.9987,82.7708,269.4431,90.6389,5.3493e-05,5.45e-06,0.0,0 STARLINK-5521,1 56471U 23064Z   24102.36029524  .00000545  00000-0  53493-4 0  9990,2 56471  69.9987  82.7708 0002958 269.4431  90.6389 14.98330170 51285,6950.192,96.107,574.113,570.001,0.0
56471.0,STARLINK-5521,PAYLOAD,2024-04-12 08:40:50,14.9833215,0.0002894,69.9991,80.246,269.1083,90.9744,2.2269e-05,1.73e-06,0.0,0 STARLINK-5521,1 56471U 23064Z   24103.36169388  .00000173  00000-0  22269-4 0  9998,2 56471  69.9991  80.2460 0002894 269.1083  90.9744 14.98332150 51791,6950.186,96.107,574.063,570.04,0.0
56471.0,STARLINK-5521,PAYLOAD,2024-04-13 08:42:51,14.98333522,0.0002835,69.9996,77.7221,264.3054,95.7781,2.5881e-05,2.16e-06,0.0,0 STARLINK-5521,1 56471U 23064Z   24104.36309168  .00000216  00000-0  25881-4 0  9992,2 56471  69.9996  77.7221 0002835 264.3054  95.7781 14.98333522 51947,6950.182,96.107,574.017,570.077,0.0
56471.0,STARLINK-5521,PAYLOAD,2024-04-14 07:08:44,14.98330821,0.0002727,70.0,75.3653,260.0013,100.0838,1.653e-05,1.04e-06,0.0,0 STARLINK-5521,1 56471U 23064Z   24105.29773231  .00000104  00000-0  16530-4 0  9998,2 56471  70.0000  75.3653 0002727 260.0013 100.0838 14.98330821 51725,6950.19,96.107,573.951,570.16,0.0
56471.0,STARLINK-5521,PAYLOAD,2024-04-15 03:58:29,14.9832787,0.0002451,70.0008,73.1776,234.1537,125.9394,-4.1146e-05,-5.84e-06,0.0,0 STARLINK-5521,1 56471U 23064Z   24106.16561540 -.00000584  00000-0 -41146-4 0  9998,2 56471  70.0008  73.1776 0002451 234.1537 125.9394 14.98327870 52210,6950.199,96.107,573.768,570.361,0.0
56471.0,STARLINK-5521,PAYLOAD,2024-04-15 07:10:45,14.98318656,0.0002573,70.0006,72.8392,267.6537,92.4327,9.9462e-05,1.094e-05,0.0,0 STARLINK-5521,1 56471U 23064Z   24106.29913935  .00001094  00000-0  99462-4 0  9990,2 56471  70.0006  72.8392 0002573 267.6537  92.4327 14.98318656 51871,6950.228,96.108,573.881,570.305,0.0
56471.0,STARLINK-5521,PAYLOAD,2024-04-15 21:35:57,14.98329879,0.0002365,70.0008,71.3258,275.4584,84.6306,3.8657e-05,3.68e-06,0.0,0 STARLINK-5521,1 56471U 23064Z   24106.89997420  .00000368  00000-0  38657-4 0  9999,2 56471  70.0008  71.3258 0002365 275.4584  84.6306 14.98329879 51965,6950.193,96.107,573.702,570.415,0.0
56471.0,STARLINK-5521,PAYLOAD,2024-04-16 05:36:37,14.98333673,0.0002829,69.9999,70.483,268.3195,91.764,6.1987e-05,6.47e-06,0.0,0 STARLINK-5521,1 56471U 23064Z   24107.23377014  .00000647  00000-0  61987-4 0  9991,2 56471  69.9999  70.4830 0002829 268.3195  91.7640 14.98333673 52374,6950.182,96.107,574.013,570.08,0.0
56471.0,STARLINK-5521,PAYLOAD,2024-04-16 07:12:45,14.98334767,0.0002621,70.0006,70.3158,259.3714,100.715,7.7351e-05,8.3e-06,0.0,0 STARLINK-5521,1 56471U 23064Z   24107.30052856  .00000830  00000-0  77351-4 0  9999,2 56471  70.0006  70.3158 0002621 259.3714 100.7150 14.98334767 52029,6950.178,96.107,573.865,570.222,0.0
56471.0,STARLINK-5521,PAYLOAD,2024-04-16 21:37:58,14.98332898,0.0002761,70.0001,68.7986,268.8975,91.1868,0.00010729,1.187e-05,0.0,0 STARLINK-5521,1 56471U 23064Z   24107.90136723  .00001187  00000-0  10729-3 0  9992,2 56471  70.0001  68.7986 0002761 268.8975  91.1868 14.98332898 52115,6950.184,96.107,573.968,570.13,0.0
56471.0,STARLINK-5521,PAYLOAD,2024-04-17 05:38:37,14.98340627,0.0002778,70.0,67.9573,270.0292,90.0548,0.00014085,1.588e-05,0.0,0 STARLINK-5521,1 56471U 23064Z   24108.23516041  .00001588  00000-0  14085-3 0  9998,2 56471  70.0000  67.9573 0002778 270.0292  90.0548 14.98340627 52529,6950.16,96.106,573.956,570.094,0.0
56471.0,STARLINK-5521,PAYLOAD,2024-04-17 07:14:45,14.98342887,0.000283,70.0001,67.7892,270.2815,89.8019,0.00016258,1.848e-05,0.0,0 STARLINK-5521,1 56471U 23064Z   24108.30191785  .00001848  00000-0  16258-3 0  9993,2 56471  70.0001  67.7892 0002830 270.2815  89.8019 14.98342887 52174,6950.153,96.106,573.985,570.051,0.0
56471.0,STARLINK-5521,PAYLOAD,2024-04-17 21:40:00,14.98322238,0.0002725,70.0003,66.274,271.3718,88.7129,-0.00013953,-1.757e-05,0.0,0 STARLINK-5521,1 56471U 23064Z   24108.90278043 -.00001757  00000-0 -13953-3 0  9992,2 56471  70.0003  66.2740 0002725 271.3718  88.7129 14.98322238 52267,6950.217,96.107,573.976,570.188,0.0
56471.0,STARLINK-5521,PAYLOAD,2024-04-18 04:04:32,14.98321147,0.000285,70.0003,65.6009,269.5139,90.5693,-0.000153,-1.918e-05,0.0,0 STARLINK-5521,1 56471U 23064Z   24109.16982239 -.00001918  00000-0 -15300-3 0  9997,2 56471  70.0003  65.6009 0002850 269.5139  90.5693 14.98321147 52662,6950.22,96.108,574.066,570.104,0.0
56471.0,STARLINK-5521,PAYLOAD,2024-04-18 07:16:48,14.98322796,0.0002765,70.0006,65.2647,268.1542,91.9301,-0.00011853,-1.507e-05,0.0,0 STARLINK-5521,1 56471U 23064Z   24109.30334104 -.00001507  00000-0 -11853-3 0  9998,2 56471  70.0006  65.2647 0002765 268.1542  91.9301 14.98322796 52322,6950.215,96.107,574.002,570.158,0.0
56471.0,STARLINK-5521,PAYLOAD,2024-04-18 21:42:00,14.98330212,0.0002815,70.0004,63.75,268.417,91.6666,-6.8483e-05,-9.1e-06,0.0,0 STARLINK-5521,1 56471U 23064Z   24109.90417595 -.00000910  00000-0 -68483-4 0  9999,2 56471  70.0004  63.7500 0002815 268.4170  91.6666 14.98330212 52410,6950.192,96.107,574.014,570.101,0.0
56471.0,STARLINK-5521,PAYLOAD,2024-04-19 04:06:32,14.98334589,0.000278,70.0007,63.0777,258.7217,101.363,-9.2607e-08,-9.4e-07,0.0,0 STARLINK-5521,1 56471U 23064Z   24110.17121084 -.00000094  00000-0 -92607-7 0  9996,2 56471  70.0007  63.0777 0002780 258.7217 101.3630 14.98334589 52812,6950.179,96.107,573.976,570.112,0.0
56471.0,STARLINK-5521,PAYLOAD,2024-04-19 05:42:40,14.98339793,0.0002813,70.0006,62.91,263.703,96.3809,1.0278e-05,3e-07,0.0,0 STARLINK-5521,1 56471U 23064Z   24110.23796715  .00000030  00000-0  10278-4 0  9991,2 56471  70.0006  62.9100 0002813 263.7030  96.3809 14.98339793 52469,6950.163,96.106,573.983,570.073,0.0
56471.0,STARLINK-5521,PAYLOAD,2024-04-19 21:44:00,14.98330239,0.0002772,70.001,61.2269,259.9892,100.0954,0.00019347,2.216e-05,0.0,0 STARLINK-5521,1 56471U 23064Z   24110.90556660  .00002216  00000-0  19347-3 0  9991,2 56471  70.0010  61.2269 0002772 259.9892 100.0954 14.98330239 52560,6950.192,96.107,573.984,570.131,0.0
56471.0,STARLINK-5521,PAYLOAD,2024-04-20 04:08:32,14.98339987,0.000239,70.0022,60.5546,238.1349,121.9578,0.00032098,3.74e-05,0.0,0 STARLINK-5521,1 56471U 23064Z   24111.17259577  .00003740  00000-0  32098-3 0  9999,2 56471  70.0022  60.5546 0002390 238.1349 121.9578 14.98339987 52962,6950.162,96.106,573.688,570.366,0.0
56471.0,STARLINK-5521,PAYLOAD,2024-04-20 05:44:40,14.98337464,0.0002293,70.0034,60.3877,219.8756,140.2235,0.00031357,3.651e-05,0.0,0 STARLINK-5521,1 56471U 23064Z   24111.23935842  .00003651  00000-0  31357-3 0  9990,2 56471  70.0034  60.3877 0002293 219.8756 140.2235 14.98337464 52614,6950.17,96.107,573.628,570.441,0.0
56471.0,STARLINK-5521,PAYLOAD,2024-04-20 20:09:55,14.98319938,0.0002322,70.0023,58.8722,263.4443,96.6452,-0.00015823,-1.98e-05,0.0,0 STARLINK-5521,1 56471U 23064Z   24111.84022392 -.00001980  00000-0 -15823-3 0  9999,2 56471  70.0023  58.8722 0002322 263.4443  96.6452 14.98319938 53065,6950.224,96.108,573.703,570.475,0.0
56471.0,STARLINK-5521,PAYLOAD,2024-04-20 21:46:04,14.98299258,0.000268,70.0022,58.7038,264.2626,95.8228,-0.00037921,-4.611e-05,0.0,0 STARLINK-5521,1 56471U 23064Z   24111.90700164 -.00004611  00000-0 -37921-3 0  9993,2 56471  70.0022  58.7038 0002680 264.2626  95.8228 14.98299258 52717,6950.288,96.109,574.016,570.29,0.0
56471.0,STARLINK-5521,PAYLOAD,2024-04-21 04:10:37,14.98300844,0.0002242,70.0025,58.0304,236.7836,123.3109,-0.00032073,-3.915e-05,0.0,0 STARLINK-5521,1 56471U 23064Z   24112.17404252 -.00003915  00000-0 -32073-3 0  9991,2 56471  70.0025  58.0304 0002242 236.7836 123.3109 14.98300844 53114,6950.283,96.109,573.706,570.59,0.0
56471.0,STARLINK-5521,PAYLOAD,2024-04-21 05:46:45,14.98306406,0.0002407,70.002,57.8612,273.6439,86.4445,-0.00027848,-3.412e-05,0.0,0 STARLINK-5521,1 56471U 23064Z   24112.24080094 -.00003412  00000-0 -27848-3 0  9999,2 56471  70.0020  57.8612 0002407 273.6439  86.4445 14.98306406 52762,6950.266,96.109,573.804,570.458,0.0
56471.0,STARLINK-5521,PAYLOAD,2024-04-21 20:11:56,14.98332432,0.0002664,70.0022,56.3475,263.6674,96.4181,-0.00018538,-2.304e-05,0.0,0 STARLINK-5521,1 56471U 23064Z   24112.84162286 -.00002304  00000-0 -18538-3 0  9994,2 56471  70.0022  56.3475 0002664 263.6674  96.4181 14.98332432 53217,6950.185,96.107,573.902,570.199,0.0
